CZ-2C R/B               
1 54039U 22132E   26011.96376370  .00035976  00000+0  49477-3 0  9995
2 54039  97.2949  13.7881 0017297 306.2534  53.7122 15.57024455181536
GSLV R/B                
1 54149U 22138AN  26012.01870449  .00003437  00000+0  30017-3 0  9993
2 54149  87.3830 185.3316 0021844   3.9626 356.1774 14.96323629175456
XRISM                   
1 57800U 23137A   26012.09876425  .00005866  00000+0  33925-3 0  9997
2 57800  31.0026 289.4830 0007915 193.8457 166.1965 15.10747435129224
ACS3                    
1 59588U 24077B   26012.28446025  .00019219  00000+0  16141-1 0  9992
2 59588  97.2434 326.0646 0061492 260.9176  98.5025 13.87094609 86376
SZ-21 MODULE            
1 66515U 25246C   26011.88279060  .00031001  00000+0  31694-3 0  9992
2 66515  41.4741 191.9223 0001604 141.8798 218.2156 15.64350755  9164
