CCSDS_OMM_VERS = 2.0
CREATION_DATE  = 
ORIGINATOR     = 

OBJECT_NAME    = CZ-2C R/B
OBJECT_ID      = 2022-132E
CENTER_NAME    = EARTH
REF_FRAME      = TEME
TIME_SYSTEM    = UTC
MEAN_ELEMENT_THEORY = SGP/SGP4

EPOCH          = 2026-01-11T23:07:49.183680
MEAN_MOTION    = 15.57024455
ECCENTRICITY   = .0017297
INCLINATION    = 97.2949
RA_OF_ASC_NODE = 13.7881
ARG_OF_PERICENTER = 306.2534
MEAN_ANOMALY   = 53.7122

EPHEMERIS_TYPE = 0
CLASSIFICATION_TYPE = U
NORAD_CAT_ID   = 54039
ELEMENT_SET_NO = 999
REV_AT_EPOCH   = 18153
BSTAR          = .49477155E-3
MEAN_MOTION_DOT = .35976E-3
MEAN_MOTION_DDOT = 0

CCSDS_OMM_VERS = 2.0
CREATION_DATE  = 
ORIGINATOR     = 

OBJECT_NAME    = GSLV R/B
OBJECT_ID      = 2022-138AN
CENTER_NAME    = EARTH
REF_FRAME      = TEME
TIME_SYSTEM    = UTC
MEAN_ELEMENT_THEORY = SGP/SGP4

EPOCH          = 2026-01-12T00:26:56.067936
MEAN_MOTION    = 14.96323629
ECCENTRICITY   = .0021844
INCLINATION    = 87.3830
RA_OF_ASC_NODE = 185.3316
ARG_OF_PERICENTER = 3.9626
MEAN_ANOMALY   = 356.1774

EPHEMERIS_TYPE = 0
CLASSIFICATION_TYPE = U
NORAD_CAT_ID   = 54149
ELEMENT_SET_NO = 999
REV_AT_EPOCH   = 17545
BSTAR          = .3001729E-3
MEAN_MOTION_DOT = .3437E-4
MEAN_MOTION_DDOT = 0

CCSDS_OMM_VERS = 2.0
CREATION_DATE  = 
ORIGINATOR     = 

OBJECT_NAME    = XRISM
OBJECT_ID      = 2023-137A
CENTER_NAME    = EARTH
REF_FRAME      = TEME
TIME_SYSTEM    = UTC
MEAN_ELEMENT_THEORY = SGP/SGP4

EPOCH          = 2026-01-12T02:22:13.231200
MEAN_MOTION    = 15.10747435
ECCENTRICITY   = .00079156
INCLINATION    = 31.0026
RA_OF_ASC_NODE = 289.4830
ARG_OF_PERICENTER = 193.8457
MEAN_ANOMALY   = 166.1965

EPHEMERIS_TYPE = 0
CLASSIFICATION_TYPE = U
NORAD_CAT_ID   = 57800
ELEMENT_SET_NO = 999
REV_AT_EPOCH   = 12922
BSTAR          = .33924545E-3
MEAN_MOTION_DOT = .5866E-4
MEAN_MOTION_DDOT = 0

CCSDS_OMM_VERS = 2.0
CREATION_DATE  = 
ORIGINATOR     = 

OBJECT_NAME    = ACS3
OBJECT_ID      = 2024-077B
CENTER_NAME    = EARTH
REF_FRAME      = TEME
TIME_SYSTEM    = UTC
MEAN_ELEMENT_THEORY = SGP/SGP4

EPOCH          = 2026-01-12T06:49:37.365600
MEAN_MOTION    = 13.87094609
ECCENTRICITY   = .00614924
INCLINATION    = 97.2434
RA_OF_ASC_NODE = 326.0646
ARG_OF_PERICENTER = 260.9176
MEAN_ANOMALY   = 98.5025

EPHEMERIS_TYPE = 0
CLASSIFICATION_TYPE = U
NORAD_CAT_ID   = 59588
ELEMENT_SET_NO = 999
REV_AT_EPOCH   = 8637
BSTAR          = .1614067E-1
MEAN_MOTION_DOT = .19219E-3
MEAN_MOTION_DDOT = 0

CCSDS_OMM_VERS = 2.0
CREATION_DATE  = 
ORIGINATOR     = 

OBJECT_NAME    = SZ-21 MODULE
OBJECT_ID      = 2025-246C
CENTER_NAME    = EARTH
REF_FRAME      = TEME
TIME_SYSTEM    = UTC
MEAN_ELEMENT_THEORY = SGP/SGP4

EPOCH          = 2026-01-11T21:11:13.107840
MEAN_MOTION    = 15.64350755
ECCENTRICITY   = .00016049
INCLINATION    = 41.4741
RA_OF_ASC_NODE = 191.9223
ARG_OF_PERICENTER = 141.8798
MEAN_ANOMALY   = 218.2156

EPHEMERIS_TYPE = 0
CLASSIFICATION_TYPE = U
NORAD_CAT_ID   = 66515
ELEMENT_SET_NO = 999
REV_AT_EPOCH   = 916
BSTAR          = .31693738E-3
MEAN_MOTION_DOT = .31001E-3
MEAN_MOTION_DDOT = 0

